start=new Date('2021-08-30T00:00:00.000Z').valueOf();
sats=[{"FILE":"3105271","BSTAR":"0.00005431700000","DECAY_DATE":null,"MEAN_MOTION_DDOT":"0.0000000000000","INCLINATION":"53.0554","RCS_SIZE":"LARGE","APOAPSIS":"550.859","ARG_OF_PERICENTER":"232.3032","OBJECT_ID":"2020-074BB","RA_OF_ASC_NODE":"151.3187","ELEMENT_SET_NO":"999","PERIOD":"95.592","COUNTRY_CODE":"US","MEAN_MOTION":"15.06403835","SITE":"AFETR","TLE_LINE1":"1 46788U 20074BB  21241.88874177  .00000526  00000-0  54317-4 0  9993","MEAN_ANOMALY":"127.7479","MEAN_MOTION_DOT":"0.00000526","EPHEMERIS_TYPE":"0","OBJECT_NAME":"STARLINK-1929","TLE_LINE2":"2 46788  53.0554 151.3187 0005281 232.3032 127.7479 15.06403835 47984","GP_ID":"183701260","EPOCH":"2021-08-29T21:19:47.288928","SEMIMAJOR_AXIS":"6925.337","LAUNCH_DATE":"2020-10-24","REV_AT_EPOCH":"4798","MEAN_ELEMENT_THEORY":"SGP4","TIME_SYSTEM":"UTC","NORAD_CAT_ID":"46788","PERIAPSIS":"543.545","REF_FRAME":"TEME","CENTER_NAME":"EARTH","CLASSIFICATION_TYPE":"U","OBJECT_TYPE":"PAYLOAD","ECCENTRICITY":"0.00052810"},{"REF_FRAME":"TEME","NORAD_CAT_ID":"46789","TIME_SYSTEM":"UTC","PERIAPSIS":"545.931","MEAN_ELEMENT_THEORY":"SGP4","REV_AT_EPOCH":"4751","SEMIMAJOR_AXIS":"6925.327","LAUNCH_DATE":"2020-10-24","ECCENTRICITY":"0.00018200","OBJECT_TYPE":"PAYLOAD","CENTER_NAME":"EARTH","CLASSIFICATION_TYPE":"U","EPHEMERIS_TYPE":"0","MEAN_ANOMALY":"298.2795","MEAN_MOTION_DOT":"0.00002379","TLE_LINE1":"1 46789U 20074BC  21241.56436183  .00002379  00000-0  17854-3 0  9992","TLE_LINE2":"2 46789  53.0535 182.7922 0001820  61.8378 298.2795 15.06407193 47517","EPOCH":"2021-08-29T13:32:40.862112","GP_ID":"183700008","OBJECT_NAME":"STARLINK-1930","ELEMENT_SET_NO":"999","RA_OF_ASC_NODE":"182.7922","OBJECT_ID":"2020-074BC","SITE":"AFETR","MEAN_MOTION":"15.06407193","COUNTRY_CODE":"US","PERIOD":"95.592","MEAN_MOTION_DDOT":"0.0000000000000","BSTAR":"0.00017854000000","DECAY_DATE":null,"FILE":"3105271","ARG_OF_PERICENTER":"61.8378","RCS_SIZE":"LARGE","APOAPSIS":"548.452","INCLINATION":"53.0535"},{"GP_ID":"183699758","TLE_LINE2":"2 46790  53.0547 181.3825 0001732  55.2306 304.8846 15.06397557 47556","EPOCH":"2021-08-29T20:59:54.812544","OBJECT_NAME":"STARLINK-1931","EPHEMERIS_TYPE":"0","MEAN_MOTION_DOT":"0.00000621","MEAN_ANOMALY":"304.8846","TLE_LINE1":"1 46790U 20074BD  21241.87493996  .00000621  00000-0  60568-4 0  9992","ECCENTRICITY":"0.00017320","OBJECT_TYPE":"PAYLOAD","CENTER_NAME":"EARTH","CLASSIFICATION_TYPE":"U","REF_FRAME":"TEME","NORAD_CAT_ID":"46790","TIME_SYSTEM":"UTC","PERIAPSIS":"546.022","REV_AT_EPOCH":"4755","MEAN_ELEMENT_THEORY":"SGP4","SEMIMAJOR_AXIS":"6925.356","LAUNCH_DATE":"2020-10-24","ARG_OF_PERICENTER":"55.2306","RCS_SIZE":"LARGE","APOAPSIS":"548.421","INCLINATION":"53.0547","MEAN_MOTION_DDOT":"0.0000000000000","BSTAR":"0.00006056800000","DECAY_DATE":null,"FILE":"3105271","SITE":"AFETR","MEAN_MOTION":"15.06397557","COUNTRY_CODE":"US","PERIOD":"95.592","ELEMENT_SET_NO":"999","RA_OF_ASC_NODE":"181.3825","OBJECT_ID":"2020-074BD"},{"SITE":"AFETR","MEAN_MOTION":"15.06417524","COUNTRY_CODE":"US","PERIOD":"95.591","ELEMENT_SET_NO":"999","OBJECT_ID":"2020-074BE","RA_OF_ASC_NODE":"182.8247","ARG_OF_PERICENTER":"59.9785","APOAPSIS":"548.354","RCS_SIZE":"LARGE","INCLINATION":"53.0540","MEAN_MOTION_DDOT":"0.0000000000000","BSTAR":"0.00042047000000","DECAY_DATE":null,"FILE":"3105271","ECCENTRICITY":"0.00017250","OBJECT_TYPE":"PAYLOAD","CENTER_NAME":"EARTH","CLASSIFICATION_TYPE":"U","REF_FRAME":"TEME","NORAD_CAT_ID":"46791","TIME_SYSTEM":"UTC","PERIAPSIS":"545.965","MEAN_ELEMENT_THEORY":"SGP4","REV_AT_EPOCH":"4751","SEMIMAJOR_AXIS":"6925.295","LAUNCH_DATE":"2020-10-24","TLE_LINE2":"2 46791  53.0540 182.8247 0001725  59.9785 300.1375 15.06417524 47517","GP_ID":"183701010","EPOCH":"2021-08-29T13:23:25.854432","OBJECT_NAME":"STARLINK-1933","EPHEMERIS_TYPE":"0","MEAN_ANOMALY":"300.1375","MEAN_MOTION_DOT":"0.00005990","TLE_LINE1":"1 46791U 20074BE  21241.55793813  .00005990  00000-0  42047-3 0  9994"},{"TLE_LINE2":"2 46792  53.0556 171.5064 0001525  59.6047 300.5093 15.06394581 47690","GP_ID":"183700760","EPOCH":"2021-08-29T20:24:04.808160","OBJECT_NAME":"STARLINK-1934","MEAN_ANOMALY":"300.5093","MEAN_MOTION_DOT":"0.00000656","EPHEMERIS_TYPE":"0","TLE_LINE1":"1 46792U 20074BF  21241.85005565  .00000656  00000-0  62973-4 0  9993","ECCENTRICITY":"0.00015250","CENTER_NAME":"EARTH","CLASSIFICATION_TYPE":"U","OBJECT_TYPE":"PAYLOAD","NORAD_CAT_ID":"46792","TIME_SYSTEM":"UTC","PERIAPSIS":"546.174","REF_FRAME":"TEME","SEMIMAJOR_AXIS":"6925.365","LAUNCH_DATE":"2020-10-24","MEAN_ELEMENT_THEORY":"SGP4","REV_AT_EPOCH":"4769","ARG_OF_PERICENTER":"59.6047","INCLINATION":"53.0556","RCS_SIZE":"LARGE","APOAPSIS":"548.286","MEAN_MOTION_DDOT":"0.0000000000000","FILE":"3105271","BSTAR":"0.00006297300000","DECAY_DATE":null,"SITE":"AFETR","PERIOD":"95.592","MEAN_MOTION":"15.06394581","COUNTRY_CODE":"US","OBJECT_ID":"2020-074BF","RA_OF_ASC_NODE":"171.5064","ELEMENT_SET_NO":"999"},{"GP_ID":"183699508","TLE_LINE2":"2 46793  53.0559 181.3623 0001728  67.2644 292.8528 15.06404177 47551","EPOCH":"2021-08-29T21:05:12.748128","OBJECT_NAME":"STARLINK-1941","MEAN_ANOMALY":"292.8528","MEAN_MOTION_DOT":"0.00000682","EPHEMERIS_TYPE":"0","TLE_LINE1":"1 46793U 20074BG  21241.87861977  .00000682  00000-0  64706-4 0  9998","ECCENTRICITY":"0.00017280","CLASSIFICATION_TYPE":"U","CENTER_NAME":"EARTH","OBJECT_TYPE":"PAYLOAD","PERIAPSIS":"546.004","TIME_SYSTEM":"UTC","NORAD_CAT_ID":"46793","REF_FRAME":"TEME","LAUNCH_DATE":"2020-10-24","SEMIMAJOR_AXIS":"6925.336","REV_AT_EPOCH":"4755","MEAN_ELEMENT_THEORY":"SGP4","ARG_OF_PERICENTER":"67.2644","INCLINATION":"53.0559","APOAPSIS":"548.397","RCS_SIZE":"LARGE","MEAN_MOTION_DDOT":"0.0000000000000","FILE":"3105271","DECAY_DATE":null,"BSTAR":"0.00006470600000","SITE":"AFETR","PERIOD":"95.592","MEAN_MOTION":"15.06404177","COUNTRY_CODE":"US","RA_OF_ASC_NODE":"181.3623","OBJECT_ID":"2020-074BG","ELEMENT_SET_NO":"999"},{"EPHEMERIS_TYPE":"0","MEAN_ANOMALY":"297.6045","MEAN_MOTION_DOT":"0.00001229","TLE_LINE1":"1 46794U 20074BH  21241.55424978  .00001229  00000-0  10132-3 0  9991","EPOCH":"2021-08-29T13:18:07.180992","TLE_LINE2":"2 46794  53.0542 182.8429 0001672  62.5114 297.6045 15.06416531 47512","GP_ID":"183700259","OBJECT_NAME":"STARLINK-1942","REF_FRAME":"TEME","PERIAPSIS":"546.005","NORAD_CAT_ID":"46794","TIME_SYSTEM":"UTC","MEAN_ELEMENT_THEORY":"SGP4","REV_AT_EPOCH":"4751","LAUNCH_DATE":"2020-10-24","SEMIMAJOR_AXIS":"6925.298","ECCENTRICITY":"0.00016720","OBJECT_TYPE":"PAYLOAD","CLASSIFICATION_TYPE":"U","CENTER_NAME":"EARTH","MEAN_MOTION_DDOT":"0.0000000000000","DECAY_DATE":null,"BSTAR":"0.00010132000000","FILE":"3105271","ARG_OF_PERICENTER":"62.5114","APOAPSIS":"548.321","RCS_SIZE":"LARGE","INCLINATION":"53.0542","ELEMENT_SET_NO":"999","RA_OF_ASC_NODE":"182.8429","OBJECT_ID":"2020-074BH","SITE":"AFETR","MEAN_MOTION":"15.06416531","COUNTRY_CODE":"US","PERIOD":"95.591"},{"MEAN_MOTION_DOT":"-0.00051527","MEAN_ANOMALY":"67.5824","EPHEMERIS_TYPE":"0","TLE_LINE1":"1 46795U 20074BJ  21241.89305766 -.00051527  00000-0 -11837-2 0  9992","TLE_LINE2":"2 46795  53.0502 145.2387 0006975 292.4441  67.5824 15.42097726 48075","GP_ID":"183700510","EPOCH":"2021-08-29T21:26:00.181824","OBJECT_NAME":"STARLINK-1943","NORAD_CAT_ID":"46795","TIME_SYSTEM":"UTC","PERIAPSIS":"435.166","REF_FRAME":"TEME","SEMIMAJOR_AXIS":"6818.056","LAUNCH_DATE":"2020-10-24","MEAN_ELEMENT_THEORY":"SGP4","REV_AT_EPOCH":"4807","ECCENTRICITY":"0.00069750","CENTER_NAME":"EARTH","CLASSIFICATION_TYPE":"U","OBJECT_TYPE":"PAYLOAD","MEAN_MOTION_DDOT":"0.0000000000000","FILE":"3105271","BSTAR":"-0.00118370000000","DECAY_DATE":null,"ARG_OF_PERICENTER":"292.4441","INCLINATION":"53.0502","APOAPSIS":"444.677","RCS_SIZE":"LARGE","RA_OF_ASC_NODE":"145.2387","OBJECT_ID":"2020-074BJ","ELEMENT_SET_NO":"999","SITE":"AFETR","PERIOD":"93.379","COUNTRY_CODE":"US","MEAN_MOTION":"15.42097726"},{"OBJECT_NAME":"STARLINK-1944","EPOCH":"2021-08-29T12:42:17.958528","TLE_LINE2":"2 46796  53.0551 172.9379 0001975  62.4307 297.6883 15.06400689 47648","GP_ID":"183673123","TLE_LINE1":"1 46796U 20074BK  21241.52937452  .00000520  00000-0  53809-4 0  9998","EPHEMERIS_TYPE":"0","MEAN_ANOMALY":"297.6883","MEAN_MOTION_DOT":"0.00000520","OBJECT_TYPE":"PAYLOAD","CENTER_NAME":"EARTH","CLASSIFICATION_TYPE":"U","ECCENTRICITY":"0.00019750","MEAN_ELEMENT_THEORY":"SGP4","REV_AT_EPOCH":"4764","SEMIMAJOR_AXIS":"6925.346","LAUNCH_DATE":"2020-10-24","REF_FRAME":"TEME","NORAD_CAT_ID":"46796","TIME_SYSTEM":"UTC","PERIAPSIS":"545.844","APOAPSIS":"548.579","RCS_SIZE":"LARGE","INCLINATION":"53.0551","ARG_OF_PERICENTER":"62.4307","BSTAR":"0.00005380900000","DECAY_DATE":null,"FILE":"3105060","MEAN_MOTION_DDOT":"0.0000000000000","COUNTRY_CODE":"US","MEAN_MOTION":"15.06400689","PERIOD":"95.592","SITE":"AFETR","ELEMENT_SET_NO":"999","RA_OF_ASC_NODE":"172.9379","OBJECT_ID":"2020-074BK"},{"MEAN_MOTION_DDOT":"0.0000000000000","DECAY_DATE":null,"BSTAR":"-0.00005692100000","FILE":"3105271","ARG_OF_PERICENTER":"145.9225","RCS_SIZE":"LARGE","APOAPSIS":"551.768","INCLINATION":"53.0611","ELEMENT_SET_NO":"999","RA_OF_ASC_NODE":"151.1268","OBJECT_ID":"2020-074BL","SITE":"AFETR","MEAN_MOTION":"15.06393739","COUNTRY_CODE":"US","PERIOD":"95.593","EPHEMERIS_TYPE":"0","MEAN_ANOMALY":"214.2185","MEAN_MOTION_DOT":"-0.00001132","TLE_LINE1":"1 46797U 20074BL  21241.92930938 -.00001132  00000-0 -56921-4 0  9995","TLE_LINE2":"2 46797  53.0611 151.1268 0006549 145.9225 214.2185 15.06393739 47995","GP_ID":"183700009","EPOCH":"2021-08-29T22:18:12.330432","OBJECT_NAME":"STARLINK-1947","REF_FRAME":"TEME","PERIAPSIS":"542.697","NORAD_CAT_ID":"46797","TIME_SYSTEM":"UTC","REV_AT_EPOCH":"4799","MEAN_ELEMENT_THEORY":"SGP4","LAUNCH_DATE":"2020-10-24","SEMIMAJOR_AXIS":"6925.368","ECCENTRICITY":"0.00065490","OBJECT_TYPE":"PAYLOAD","CLASSIFICATION_TYPE":"U","CENTER_NAME":"EARTH"}];
